1 41945U 17007B   20019.51766855 -.00000274 +00000-0 +00000-0 0  9997
2 41945 000.0253 061.3263 0000527 107.3477 092.8898 01.00269993010755
1 41945U 17007B   20020.45083830 -.00000275  00000-0  00000+0 0  9997
2 41945   0.0270  63.2970 0000340  82.5606  92.5662  1.00268267 10783
1 41945U 17007B   20020.52254633 -.00000275 +00000-0 +00000-0 0  9997
2 41945 000.0269 063.6566 0000343 080.3139 120.3384 01.00268175010763
1 41945U 17007B   20020.80979484 -.00000275  00000-0  00000+0 0  9995
2 41945   0.0019 128.8031 0000271  25.8812 213.2921  1.00270096 10796
1 41945U 17007B   20021.22896437 -.00000275 +00000-0 +00000-0 0  9999
2 41945 000.0187 055.9077 0000275 101.0655 002.3148 01.00269977010770
1 41945U 17007B   20021.52748583 -.00000276 +00000-0 +00000-0 0  9991
2 41945 000.0181 056.4020 0000275 096.5860 114.0600 01.00269899010771
1 41945U 17007B   20021.74295889 -.00000276  00000-0  00000+0 0  9990
2 41945   0.0181  56.9086 0000268  95.0560 192.8644  1.00269853 10795
1 41945U 17007B   20022.53241955 -.00000277 +00000-0 +00000-0 0  9995
2 41945 000.0167 059.6441 0000298 088.5829 121.5804 01.00269714010784
1 41945U 17007B   20022.74797981 -.00000277  00000-0  00000+0 0  9992
2 41945   0.0168  61.2856 0000289  86.7980 199.5363  1.00269675 10806
1 41945U 17007B   20023.39081229 -.00000277  00000-0  00000+0 0  9995
2 41945   0.0166  61.4875 0000581 110.7861  47.4025  1.00271268 10816
1 41945U 17007B   20023.46584282 -.00000277 +00000-0 +00000-0 0  9991
2 41945 000.0165 059.4653 0000592 113.3325 073.9634 01.00271290010794
1 41945U 17007B   20024.47084558 -.00000278  00000-0  00000+0 0  9994
2 41945   0.0173  55.9440 0000748 123.5713  70.0409  1.00270030 10828
1 41945U 17007B   20024.70118740 -.00000277  00000-0  00000+0 0  9990
2 41945   0.0174  57.5396 0000581 125.0967 150.0727  1.00272650 10822
1 41945U 17007B   20025.47568473 -.00000277 +00000-0 +00000-0 0  9998
2 41945 000.0172 059.0974 0000346 114.6302 078.5610 01.00270638010813
1 41945U 17007B   20025.76298828 -.00000277  00000-0  00000+0 0  9993
2 41945   0.0171  62.6972 0000330 107.6676 185.6343  1.00270434 10849
1 41945U 17007B   20026.33725163 -.00000276  00000-0  00000+0 0  9993
2 41945   0.0176  61.9516 0000628 128.2578  13.0937  1.00272593 10841
1 41945U 17007B   20026.69618103 -.00000275 +00000-0 +00000-0 0  9997
2 41945 000.0175 066.3689 0000639 120.7622 145.7399 01.00271868010826
1 41945U 17007B   20027.26091059 -.00000274 +00000-0 +00000-0 0  9995
2 41945 000.0179 067.4885 0000537 127.1947 342.0499 01.00273308010833
1 41945U 17007B   20027.41401059 -.00000274  00000-0  00000+0 0  9996
2 41945   0.0179  65.6853 0000652 131.7921  34.5248  1.00273505 10855
1 41945U 17007B   20027.77289969 -.00000273  00000-0  00000+0 0  9998
2 41945   0.0254  87.5439 0000608  84.5427 189.5015  1.00272980 10869
1 41945U 17007B   20027.88799338 -.00000272 +00000-0 +00000-0 0  9996
2 41945 000.0181 072.4967 0000602 116.0149 214.5925 01.00272824010836
1 41945U 17007B   20028.20367115 -.00000272  00000-0  00000+0 0  9996
2 41945   0.0184  70.2194 0000442 127.8448 318.9926  1.00270631 10868
1 41945U 17007B   20028.49078726 -.00000271 +00000-0 +00000-0 0  9994
2 41945 000.0186 070.3699 0000414 128.2636 062.0662 01.00270360010845
1 41945U 17007B   20028.77788108 -.00000270 +00000-0 +00000-0 0  9996
2 41945 000.0187 071.9733 0000397 125.9634 166.3979 01.00270210010847
1 41945U 17007B   20029.24355007 -.00000269  00000-0  00000+0 0  9994
2 41945   0.0189  77.2896 0000379 123.2454 331.8965  1.00269993 10872
1 41945U 17007B   20029.78288411 -.00000267 +00000-0 +00000-0 0  9996
2 41945 000.0178 079.2798 0000384 124.9040 162.9357 01.00269828010851
1 41945U 17007B   20030.19771725 -.00000266  00000-0  00000+0 0  9996
2 41945   0.0181  83.0477 0000517 134.2040 299.6213  1.00274075 10886
1 41945U 17007B   20030.44763060 -.00000265 +00000-0 +00000-0 0  9997
2 41945 000.0175 080.1521 0000514 124.5345 042.4021 01.00272853010865
1 41945U 17007B   20031.43394164 -.00000263 +00000-0 +00000-0 0  9990
2 41945 000.0197 083.2212 0000766 130.1850 029.7326 01.00271430010870
1 41945U 17007B   20031.72112266 -.00000262 +00000-0 +00000-0 0  9992
2 41945 000.0196 084.3018 0000688 132.9852 129.5213 01.00272529010874
1 41945U 17007B   20032.15049144 -.00000262  00000-0  00000+0 0  9993
2 41945   0.0197  85.5945 0000619 133.7769 282.4360  1.00273063 10907
1 41945U 17007B   20032.43891910 -.00000262  00000-0  00000+0 0  9990
2 41945   0.0230  86.7721 0000755 138.4949  20.6799  1.00268228 10908
1 41945U 17007B   20032.51071434 -.00000261 +00000-0 +00000-0 0  9990
2 41945 000.0231 086.8063 0000752 138.4998 046.5574 01.00268136010883
1 41945U 17007B   20032.72601286 -.00000261  00000-0  00000+0 0  9996
2 41945   0.0236  86.0030 0000690 147.1758 116.4059  1.00269592 10901
1 41945U 17007B   20033.08503003 -.00000261  00000-0  00000+0 0  9994
2 41945   0.0192  86.1731 0000701 140.6869 252.3071  1.00272804 10910
1 41945U 17007B   20033.44391903 -.00000260 +00000-0 +00000-0 0  9998
2 41945 000.0165 087.1801 0000889 136.6268 024.9158 01.00270633010898
1 41945U 17007B   20033.44391903 -.00000260  00000-0  00000+0 0  9997
2 41945   0.0165  87.1801 0000889 136.6268  24.9158  1.00270633 10911
1 41945U 17007B   20033.87469013 -.00000260 +00000-0 +00000-0 0  9993
2 41945 000.0173 086.5308 0000758 143.9223 173.7747 01.00272830010897
1 41945U 17007B   20033.87469013 -.00000260  00000-0  00000+0 0  9992
2 41945   0.0173  86.5308 0000758 143.9223 173.7747  1.00272830 10921
1 41945U 17007B   20035.00942852 -.00000261  00000-0  00000+0 0  9997
2 41945   0.0254  88.6972 0000512 174.3238 190.8431  1.00267794 10937
1 41945U 17007B   20035.45389931 -.00000261  00000-0  00000+0 0  9999
2 41945   0.0182  86.5776 0000536 164.1325   3.5796  1.00269951 10937
1 41945U 17007B   20035.53729640 -.00000261 +00000-0 +00000-0 0  9994
2 41945 000.0181 085.8456 0000530 165.6245 032.9241 01.00269906010913
1 41945U 17007B   20036.17177312 -.00000262 +00000-0 +00000-0 0  9999
2 41945 000.0172 084.3249 0000506 171.0419 258.0596 01.00269586010923
1 41945U 17007B   20036.45895404 -.00000263  00000-0  00000+0 0  9999
2 41945   0.0162  83.8007 0000479 174.7069 358.5845  1.00269430 10941
1 41945U 17007B   20036.74604772 -.00000264 +00000-0 +00000-0 0  9999
2 41945 000.0163 085.4409 0000459 175.8035 099.4815 01.00269274010921
1 41945U 17007B   20037.26646698 -.00000265 +00000-0 +00000-0 0  9991
2 41945 000.0156 087.6413 0000574 169.6655 291.2882 01.00273963010936
1 41945U 17007B   20037.54424366 -.00000266  00000-0  00000+0 0  9998
2 41945   0.0158  83.6851 0000620 151.7592  53.4222  1.00270264 10953
1 41945U 17007B   20037.76924330 -.00000267 +00000-0 +00000-0 0  9990
2 41945 000.0153 085.0057 0000554 165.6099 119.4755 01.00272413010934
1 41945U 17007B   20038.04424396 -.00000268  00000-0  00000+0 0  9999
2 41945   0.0149  84.7709 0000553 167.1983 217.3939  1.00272267 10969
1 41945U 17007B   20038.29324494 -.00000269 +00000-0 +00000-0 0  9996
2 41945 000.0167 084.7146 0000619 160.1190 314.4168 01.00271464010949
1 41945U 17007B   20038.52341014 -.00000269 +00000-0 +00000-0 0  9999
2 41945 000.0159 082.4179 0000649 162.3938 037.5254 01.00271289010942
1 41945U 17007B   20039.16630490 -.00000272  00000-0  00000+0 0  9992
2 41945   0.0153  82.5807 0000534 170.2750 261.5591  1.00272203 10971
1 41945U 17007B   20039.37341191 -.00000272 +00000-0 +00000-0 0  9993
2 41945 000.0182 094.7774 0000647 153.0960 341.3060 01.00272179010956
1 41945U 17007B   20039.83280841 -.00000274 +00000-0 +00000-0 0  9990
2 41945 000.0158 086.7719 0000552 164.1351 144.1085 01.00272293010954
1 41945U 17007B   20039.99285519 -.00000274 +00000-0 +00000-0 0  9994
2 41945 000.0153 083.9675 0000542 167.6785 201.1443 01.00272201010969
1 41945U 17007B   20040.40710432 -.00000276  00000-0  00000+0 0  9990
2 41945   0.0271 108.7079 0000382 136.0965 357.5538  1.00268853 10987
1 41945U 17007B   20040.76599318 -.00000277  00000-0  00000+0 0  9998
2 41945   0.0105 152.7185 0000303  94.9815 124.1858  1.00271685 10990
1 41945U 17007B   20041.12494894 -.00000278  00000-0  00000+0 0  9993
2 41945   0.0261 111.7851 0000224 203.2382 186.4650  1.00266700 10997
1 41945U 17007B   20041.24841191 -.00000278 +00000-0 +00000-0 0  9993
2 41945 000.0264 111.5345 0000227 200.2452 234.2766 01.00267140010971
1 41945U 17007B   20041.77101862 -.00000279 +00000-0 +00000-0 0  9996
2 41945 000.0186 106.4120 0000253 189.2098 079.0558 01.00269482010974
1 41945U 17007B   20042.05811223 -.00000280  00000-0  00000+0 0  9998
2 41945   0.0150  95.7329 0000303 186.4701 196.1080  1.00269445 11007
1 41945U 17007B   20042.49910477 -.00000280 +00000-0 +00000-0 0  9998
2 41945 000.0142 091.3602 0000250 195.7274 350.4120 01.00269272010987
1 41945U 17007B   20043.42208108 -.00000282  00000-0  00000+0 0  9994
2 41945   0.0159  95.9381 0000532 109.3599  45.3777  1.00266641 11013
1 41945U 17007B   20043.53591163 -.00000282 +00000-0 +00000-0 0  9993
2 41945 000.0156 096.2655 0000365 123.3687 072.1341 01.00269703010999
1 41945U 17007B   20043.53591163 -.00000282  00000-0  00000+0 0  9992
2 41945   0.0156  96.2655 0000365 123.3687  72.1341  1.00269703 11013
1 41945U 17007B   20044.36993734 -.00000282  00000-0  00000+0 0  9994
2 41945   0.0141 104.4675 0000258 123.6015   4.7728  1.00272048 11027
1 41945U 17007B   20044.52549351 -.00000282 +00000-0 +00000-0 0  9995
2 41945 000.0141 101.9369 0000245 122.5972 064.4614 01.00271987011001
1 41945U 17007B   20044.71369010 -.00000282 +00000-0 +00000-0 0  9998
2 41945 000.0170 105.5191 0000234 111.7124 139.6998 01.00271790011005
1 41945U 17007B   20045.02479993 -.00000283  00000-0  00000+0 0  9995
2 41945   0.0174 110.6537 0000023 244.4337 114.1466  1.00267452 11037
1 41945U 17007B   20045.26646503 -.00000283  00000-0  00000+0 0  9994
2 41945   0.0174 116.6929 0000257  90.2741 349.5065  1.00270047 11036
1 41945U 17007B   20045.51090927 -.00000283 +00000-0 +00000-0 0  9996
2 41945 000.0181 112.0631 0000374 089.3084 083.3437 01.00270534011018
